[{"OBJECT_NAME":"STARLINK-4105","OBJECT_ID":"2022-083AN","EPOCH":"2026-03-09T22:55:34.789728","MEAN_MOTION":15.08841696,"ECCENTRICITY":0.0002422,"INCLINATION":53.2182,"RA_OF_ASC_NODE":162.9298,"ARG_OF_PERICENTER":166.2799,"MEAN_ANOMALY":193.826,"EPHEMERIS_TYPE":0,"CLASSIFICATION_TYPE":"U","NORAD_CAT_ID":53168,"ELEMENT_SET_NO":999,"REV_AT_EPOCH":20140,"BSTAR":-0.00032533886,"MEAN_MOTION_DOT":-5.463e-5,"MEAN_MOTION_DDOT":0},{"OBJECT_NAME":"CZ-6A R\/B","OBJECT_ID":"2022-031C","EPOCH":"2026-03-09T19:50:55.360896","MEAN_MOTION":15.07476837,"ECCENTRICITY":0.00174842,"INCLINATION":97.8104,"RA_OF_ASC_NODE":273.2347,"ARG_OF_PERICENTER":181.6412,"MEAN_ANOMALY":178.4761,"EPHEMERIS_TYPE":0,"CLASSIFICATION_TYPE":"U","NORAD_CAT_ID":52152,"ELEMENT_SET_NO":999,"REV_AT_EPOCH":21633,"BSTAR":0.00020233161,"MEAN_MOTION_DOT":3.012e-5,"MEAN_MOTION_DDOT":0}]
